start=new Date('2023-01-13T00:00:00.000Z').valueOf();
sats=[{"LAUNCH_DATE":"2022-07-07","INCLINATION":"53.2168","REV_AT_EPOCH":"2909","CLASSIFICATION_TYPE":"U","OBJECT_ID":"2022-076AF","EPOCH":"2023-01-12T20:06:44.857152","MEAN_ELEMENT_THEORY":"SGP4","TIME_SYSTEM":"UTC","ECCENTRICITY":"0.00031380","PERIAPSIS":"537.586","MEAN_MOTION":"15.08836254","SEMIMAJOR_AXIS":"6917.892","GP_ID":"222892615","ARG_OF_PERICENTER":"37.2640","COUNTRY_CODE":"US","OBJECT_NAME":"STARLINK-4262","FILE":"3742227","NORAD_CAT_ID":"53015","OBJECT_TYPE":"PAYLOAD","CENTER_NAME":"EARTH","MEAN_MOTION_DDOT":"0.0000000000000","APOAPSIS":"541.928","MEAN_ANOMALY":"322.8569","PERIOD":"95.438","TLE_LINE2":"2 53015  53.2168 214.9962 0003138  37.2640 322.8569 15.08836254 29098","SITE":"AFETR","ELEMENT_SET_NO":"999","REF_FRAME":"TEME","MEAN_MOTION_DOT":"-0.00001643","TLE_LINE1":"1 53015U 22076AF  23012.83801918 -.00001643  00000-0 -85132-4 0  9996","RCS_SIZE":"LARGE","EPHEMERIS_TYPE":"0","DECAY_DATE":null,"BSTAR":"-0.00008513200000","RA_OF_ASC_NODE":"214.9962"},{"OBJECT_NAME":"STARLINK-4283","COUNTRY_CODE":"US","ARG_OF_PERICENTER":"42.9861","CENTER_NAME":"EARTH","OBJECT_TYPE":"PAYLOAD","NORAD_CAT_ID":"53016","FILE":"3742227","MEAN_MOTION":"15.08842323","SEMIMAJOR_AXIS":"6917.873","PERIAPSIS":"538.099","GP_ID":"222892138","MEAN_ELEMENT_THEORY":"SGP4","EPOCH":"2023-01-12T20:22:37.371360","OBJECT_ID":"2022-076AG","ECCENTRICITY":"0.00023700","TIME_SYSTEM":"UTC","CLASSIFICATION_TYPE":"U","LAUNCH_DATE":"2022-07-07","INCLINATION":"53.2125","REV_AT_EPOCH":"2909","BSTAR":"-0.00001132200000","DECAY_DATE":null,"RA_OF_ASC_NODE":"214.9401","TLE_LINE1":"1 53016U 22076AG  23012.84904365 -.00000469  00000-0 -11322-4 0  9993","EPHEMERIS_TYPE":"0","RCS_SIZE":"MEDIUM","ELEMENT_SET_NO":"999","SITE":"AFETR","MEAN_MOTION_DOT":"-0.00000469","REF_FRAME":"TEME","APOAPSIS":"541.378","MEAN_ANOMALY":"317.1316","PERIOD":"95.437","MEAN_MOTION_DDOT":"0.0000000000000","TLE_LINE2":"2 53016  53.2125 214.9401 0002370  42.9861 317.1316 15.08842323 29096"},{"RCS_SIZE":"LARGE","EPHEMERIS_TYPE":"0","TLE_LINE1":"1 53017U 22076AH  23012.90057697  .00000006  00000-0  18475-4 0  9999","RA_OF_ASC_NODE":"214.7055","BSTAR":"0.00001847500000","DECAY_DATE":null,"TLE_LINE2":"2 53017  53.2145 214.7055 0001840  79.6638 280.4562 15.08841488 29571","APOAPSIS":"541.014","MEAN_ANOMALY":"280.4562","PERIOD":"95.437","MEAN_MOTION_DDOT":"0.0000000000000","MEAN_MOTION_DOT":"0.00000006","REF_FRAME":"TEME","ELEMENT_SET_NO":"999","SITE":"AFETR","GP_ID":"222858596","PERIAPSIS":"538.468","MEAN_MOTION":"15.08841488","SEMIMAJOR_AXIS":"6917.876","CENTER_NAME":"EARTH","NORAD_CAT_ID":"53017","FILE":"3741856","OBJECT_TYPE":"PAYLOAD","OBJECT_NAME":"STARLINK-4281","ARG_OF_PERICENTER":"79.6638","COUNTRY_CODE":"US","LAUNCH_DATE":"2022-07-07","REV_AT_EPOCH":"2957","INCLINATION":"53.2145","CLASSIFICATION_TYPE":"U","TIME_SYSTEM":"UTC","ECCENTRICITY":"0.00018400","OBJECT_ID":"2022-076AH","EPOCH":"2023-01-12T21:36:49.850208","MEAN_ELEMENT_THEORY":"SGP4"},{"TLE_LINE1":"1 53018U 22076AJ  23012.84633528  .00000746  00000-0  64997-4 0  9997","EPHEMERIS_TYPE":"0","RCS_SIZE":"LARGE","DECAY_DATE":null,"BSTAR":"0.00006499700000","RA_OF_ASC_NODE":"214.9516","MEAN_MOTION_DDOT":"0.0000000000000","APOAPSIS":"541.305","PERIOD":"95.438","MEAN_ANOMALY":"319.0522","TLE_LINE2":"2 53018  53.2130 214.9516 0002241  41.0638 319.0522 15.08836815 29099","SITE":"AFETR","ELEMENT_SET_NO":"999","REF_FRAME":"TEME","MEAN_MOTION_DOT":"0.00000746","MEAN_MOTION":"15.08836815","SEMIMAJOR_AXIS":"6917.890","PERIAPSIS":"538.205","GP_ID":"222891902","COUNTRY_CODE":"US","ARG_OF_PERICENTER":"41.0638","OBJECT_NAME":"STARLINK-4279","OBJECT_TYPE":"PAYLOAD","NORAD_CAT_ID":"53018","FILE":"3742227","CENTER_NAME":"EARTH","CLASSIFICATION_TYPE":"U","INCLINATION":"53.2130","LAUNCH_DATE":"2022-07-07","REV_AT_EPOCH":"2909","EPOCH":"2023-01-12T20:18:43.368192","MEAN_ELEMENT_THEORY":"SGP4","OBJECT_ID":"2022-076AJ","ECCENTRICITY":"0.00022410","TIME_SYSTEM":"UTC"},{"REF_FRAME":"TEME","MEAN_MOTION_DOT":"0.00000391","SITE":"AFETR","ELEMENT_SET_NO":"999","TLE_LINE2":"2 53019  53.2168 215.0337 0002195  64.0939 296.0279 15.08842432 29096","MEAN_MOTION_DDOT":"0.0000000000000","PERIOD":"95.437","APOAPSIS":"541.256","MEAN_ANOMALY":"296.0279","RA_OF_ASC_NODE":"215.0337","DECAY_DATE":null,"BSTAR":"0.00004264800000","RCS_SIZE":"LARGE","EPHEMERIS_TYPE":"0","TLE_LINE1":"1 53019U 22076AK  23012.82698160  .00000391  00000-0  42648-4 0  9994","ECCENTRICITY":"0.00021950","TIME_SYSTEM":"UTC","OBJECT_ID":"2022-076AK","EPOCH":"2023-01-12T19:50:51.210240","MEAN_ELEMENT_THEORY":"SGP4","REV_AT_EPOCH":"2909","LAUNCH_DATE":"2022-07-07","INCLINATION":"53.2168","CLASSIFICATION_TYPE":"U","NORAD_CAT_ID":"53019","FILE":"3742227","OBJECT_TYPE":"PAYLOAD","CENTER_NAME":"EARTH","ARG_OF_PERICENTER":"64.0939","COUNTRY_CODE":"US","OBJECT_NAME":"STARLINK-4282","GP_ID":"222893088","PERIAPSIS":"538.219","MEAN_MOTION":"15.08842432","SEMIMAJOR_AXIS":"6917.873"},{"EPHEMERIS_TYPE":"0","RCS_SIZE":"LARGE","TLE_LINE1":"1 53020U 22076AL  23012.84170225 -.00000821  00000-0 -33489-4 0  9998","RA_OF_ASC_NODE":"214.9734","DECAY_DATE":null,"BSTAR":"-0.00003348900000","TLE_LINE2":"2 53020  53.2140 214.9734 0002017  56.2730 303.8454 15.08821216 29091","MEAN_MOTION_DDOT":"0.0000000000000","MEAN_ANOMALY":"303.8454","APOAPSIS":"541.198","PERIOD":"95.439","REF_FRAME":"TEME","MEAN_MOTION_DOT":"-0.00000821","SITE":"AFETR","ELEMENT_SET_NO":"999","GP_ID":"222891662","SEMIMAJOR_AXIS":"6917.938","MEAN_MOTION":"15.08821216","PERIAPSIS":"538.407","OBJECT_TYPE":"PAYLOAD","NORAD_CAT_ID":"53020","FILE":"3742227","CENTER_NAME":"EARTH","COUNTRY_CODE":"US","ARG_OF_PERICENTER":"56.2730","OBJECT_NAME":"STARLINK-4287","CLASSIFICATION_TYPE":"U","LAUNCH_DATE":"2022-07-07","INCLINATION":"53.2140","REV_AT_EPOCH":"2909","TIME_SYSTEM":"UTC","ECCENTRICITY":"0.00020170","EPOCH":"2023-01-12T20:12:03.074400","MEAN_ELEMENT_THEORY":"SGP4","OBJECT_ID":"2022-076AL"},{"NORAD_CAT_ID":"53021","FILE":"3742227","OBJECT_TYPE":"PAYLOAD","CENTER_NAME":"EARTH","ARG_OF_PERICENTER":"45.4764","COUNTRY_CODE":"US","OBJECT_NAME":"STARLINK-4203","GP_ID":"222892142","PERIAPSIS":"538.487","SEMIMAJOR_AXIS":"6917.914","MEAN_MOTION":"15.08829100","ECCENTRICITY":"0.00018670","TIME_SYSTEM":"UTC","OBJECT_ID":"2022-076AM","MEAN_ELEMENT_THEORY":"SGP4","EPOCH":"2023-01-12T19:40:15.288096","REV_AT_EPOCH":"2909","LAUNCH_DATE":"2022-07-07","INCLINATION":"53.2173","CLASSIFICATION_TYPE":"U","RA_OF_ASC_NODE":"215.0688","DECAY_DATE":null,"BSTAR":"0.00000181420000","RCS_SIZE":"LARGE","EPHEMERIS_TYPE":"0","TLE_LINE1":"1 53021U 22076AM  23012.81962139 -.00000259  00000-0  18142-5 0  9993","REF_FRAME":"TEME","MEAN_MOTION_DOT":"-0.00000259","SITE":"AFETR","ELEMENT_SET_NO":"999","TLE_LINE2":"2 53021  53.2173 215.0688 0001867  45.4764 314.6381 15.08829100 29096","MEAN_MOTION_DDOT":"0.0000000000000","APOAPSIS":"541.070","PERIOD":"95.438","MEAN_ANOMALY":"314.6381"},{"PERIAPSIS":"537.530","MEAN_MOTION":"15.08828000","SEMIMAJOR_AXIS":"6917.917","GP_ID":"222892379","OBJECT_NAME":"STARLINK-4216","ARG_OF_PERICENTER":"34.9295","COUNTRY_CODE":"US","CENTER_NAME":"EARTH","FILE":"3742227","NORAD_CAT_ID":"53022","OBJECT_TYPE":"PAYLOAD","LAUNCH_DATE":"2022-07-07","INCLINATION":"53.2144","REV_AT_EPOCH":"2909","CLASSIFICATION_TYPE":"U","OBJECT_ID":"2022-076AN","MEAN_ELEMENT_THEORY":"SGP4","EPOCH":"2023-01-12T19:56:08.935872","TIME_SYSTEM":"UTC","ECCENTRICITY":"0.00032560","TLE_LINE1":"1 53022U 22076AN  23012.83065898 -.00003452  00000-0 -19889-3 0  9998","RCS_SIZE":"LARGE","EPHEMERIS_TYPE":"0","BSTAR":"-0.00019889000000","DECAY_DATE":null,"RA_OF_ASC_NODE":"215.0192","APOAPSIS":"542.035","MEAN_ANOMALY":"325.1910","PERIOD":"95.438","MEAN_MOTION_DDOT":"0.0000000000000","TLE_LINE2":"2 53022  53.2144 215.0192 0003256  34.9295 325.1910 15.08828000 29094","ELEMENT_SET_NO":"999","SITE":"AFETR","MEAN_MOTION_DOT":"-0.00003452","REF_FRAME":"TEME"},{"TLE_LINE2":"2 53023  53.2160 215.0888 0001352  82.9806 277.1340 15.08846368 29091","MEAN_MOTION_DDOT":"0.0000000000000","APOAPSIS":"540.661","PERIOD":"95.437","MEAN_ANOMALY":"277.1340","REF_FRAME":"TEME","MEAN_MOTION_DOT":"-0.00003301","SITE":"AFETR","ELEMENT_SET_NO":"999","EPHEMERIS_TYPE":"0","RCS_SIZE":"LARGE","TLE_LINE1":"1 53023U 22076AP  23012.81321123 -.00003301  00000-0 -18939-3 0  9991","RA_OF_ASC_NODE":"215.0888","DECAY_DATE":null,"BSTAR":"-0.00018939000000","CLASSIFICATION_TYPE":"U","LAUNCH_DATE":"2022-07-07","REV_AT_EPOCH":"2909","INCLINATION":"53.2160","TIME_SYSTEM":"UTC","ECCENTRICITY":"0.00013520","EPOCH":"2023-01-12T19:31:01.450272","MEAN_ELEMENT_THEORY":"SGP4","OBJECT_ID":"2022-076AP","GP_ID":"222892616","MEAN_MOTION":"15.08846368","SEMIMAJOR_AXIS":"6917.861","PERIAPSIS":"538.791","OBJECT_TYPE":"PAYLOAD","NORAD_CAT_ID":"53023","FILE":"3742227","CENTER_NAME":"EARTH","COUNTRY_CODE":"US","ARG_OF_PERICENTER":"82.9806","OBJECT_NAME":"STARLINK-4284"},{"REF_FRAME":"TEME","MEAN_MOTION_DOT":"0.00001828","SITE":"AFETR","ELEMENT_SET_NO":"999","TLE_LINE2":"2 53024  53.2149 214.4791 0002347  37.9570 322.1588 15.08836994 29581","MEAN_MOTION_DDOT":"0.0000000000000","APOAPSIS":"541.378","PERIOD":"95.438","MEAN_ANOMALY":"322.1588","RA_OF_ASC_NODE":"214.4791","DECAY_DATE":null,"BSTAR":"0.00013294000000","RCS_SIZE":"LARGE","EPHEMERIS_TYPE":"0","TLE_LINE1":"1 53024U 22076AQ  23012.94842191  .00001828  00000-0  13294-3 0  9998","TIME_SYSTEM":"UTC","ECCENTRICITY":"0.00023470","OBJECT_ID":"2022-076AQ","EPOCH":"2023-01-12T22:45:43.653024","MEAN_ELEMENT_THEORY":"SGP4","REV_AT_EPOCH":"2958","LAUNCH_DATE":"2022-07-07","INCLINATION":"53.2149","CLASSIFICATION_TYPE":"U","FILE":"3741856","NORAD_CAT_ID":"53024","OBJECT_TYPE":"PAYLOAD","CENTER_NAME":"EARTH","ARG_OF_PERICENTER":"37.9570","COUNTRY_CODE":"US","OBJECT_NAME":"STARLINK-4289","GP_ID":"222858603","PERIAPSIS":"538.131","MEAN_MOTION":"15.08836994","SEMIMAJOR_AXIS":"6917.890"}];
